IRIDIUM 26              
1 24903U 97043A   26023.67794370  .00000781  00000+0  25509-3 0  9996
2 24903  86.3953  17.9274 0002415  86.9775 273.1698 14.37369097488418
IRIDIUM 22              
1 24907U 97043E   26023.51284261  .00000673  00000+0  22424-3 0  9999
2 24907  86.3952  21.7256 0002212  85.3244 274.8206 14.36157226488391
DUMMY MASS 1            
1 24925U 97048A   26023.52238053  .00000752  00000+0  80367-4 0  9992
2 24925  86.3320  33.3596 0009053  86.3631 273.8630 14.87224330537872
DUMMY MASS 2            
1 24926U 97048B   26023.52136491  .00000741  00000+0  79598-4 0  9998
2 24926  86.3318  35.0084 0009804  95.2936 264.9408 14.86974593537643
IRIDIUM 29              
1 24944U 97051A   26023.94272995  .00000770  00000+0  25479-3 0  9998
2 24944  86.3917  51.2127 0002053  89.9027 270.2406 14.36702141484963
IRIDIUM 33              
1 24946U 97051C   26023.82218477  .00000511  00000+0  17237-3 0  9998
2 24946  86.3831  50.5466 0010027  80.7996 279.4334 14.35070502484387
IRIDIUM 28              
1 24948U 97051E   26023.77732900  .00000646  00000+0  20902-3 0  9998
2 24948  86.3923  48.6721 0002774  88.3459 271.8057 14.37601886485534
IRIDIUM 36              
1 24967U 97056C   26023.42790933  .00000786  00000+0  25442-3 0  9995
2 24967  86.3932  80.4511 0002384  88.0762 272.0708 14.37829032483862
